{
  "norad_id": 68745,
  "name": "STARLINK-37267",
  "history": [
    {
      "epoch": "2026-04-23T11:32:11.596992Z",
      "apogee_km": 318.28066687133196,
      "perigee_km": 316.746559402849,
      "latitude_deg": 1.3955969243060395e-05,
      "longitude_deg": -48.95813331042507,
      "height_km": 321.3515113457852,
      "semi_major_axis_km": 6695.65061313709,
      "eccentricity": 0.00011456,
      "inclination_deg": 97.2876,
      "raan_deg": 335.6175,
      "arg_perigee_deg": 149.0501,
      "mean_anomaly_deg": 211.0837,
      "mean_motion_rev_day": 15.84577871
    }
  ]
}