STARLINK-37267          
1 68745U 26082T   26113.48068978 -.00585754  00000+0 -27395-2 0  9994
2 68745  97.2876 335.6175 0001145 149.0501 211.0837 15.84577871  1176
